OSCAR 3 (OSCAR III)     
1 01293U 65016F   09129.84593305  .00000065  00000-0  73950-4 0  5198
2 01293  70.0690 254.2752 0020042 223.5592 136.3935 14.04706040254425
OSCAR 5 (AO-5)          
1 04321U 70008B   09128.97987477 -.00000031  00000-0  10000-3 0  1602
2 04321 102.1339 139.3621 0027866  54.5086 305.8582 12.52156358795856
OSCAR 6 (AO-6)          
1 06236U 72082B   09129.91366090 -.00000027  00000-0  10000-3 0  1470
2 06236 101.3935 144.8380 0003868 329.6931  30.3919 12.53077170672617
OSCAR 7 (AO-7)          
1 07530U 74089B   09129.46246283 -.00000027  00000-0  10000-3 0  4730
2 07530 101.4293 155.5588 0011828 346.6069  13.4686 12.53575632577868
OSCAR 8 (AO-8)          
1 10703U 78026B   09129.86237353  .00000080  00000-0  84967-4 0  4869
2 10703  98.8330 176.4574 0005945 281.7322  78.3171 13.98843861590660
PHASE 3B (AO-10)        
1 14129U 83058B   09127.41174471  .00000156  00000-0  10000-3 0  6532
2 14129  25.9225 158.1693 5997022 220.4938  74.3643  2.05867130166810
UOSAT 2 (UO-11)         
1 14781U 84021B   09129.53497152 -.00000296  00000-0 -32188-4 0  9561
2 14781  98.1101 173.6589 0010197 100.5379 259.6981 14.79707413352110
JAS-1 (FO-12)           
1 16909U 86061B   09129.85597192 -.00000083  00000-0  10000-3 0  5524
2 16909  50.0170 279.7294 0011584 109.7023 250.5062 12.44452743 34206
UOSAT 3 (UO-14)         
1 20437U 90005B   09129.05678998 -.00000002  00000-0  15067-4 0  9179
2 20437  98.3374  88.7808 0010171 290.3345  69.6740 14.31543193  7459
UOSAT 4 (UO-15)         
1 20438U 90005C   09129.87176608 -.00000015  00000-0  10250-4 0  4102
2 20438  98.3967  82.4569 0009453 316.8829  43.1609 14.30443774  6997
PACSAT (AO-16)          
1 20439U 90005D   09129.48979731  .00000002  00000-0  16051-4 0  6009
2 20439  98.2757  99.6588 0010088 289.0426  70.9670 14.31823165  7618
DOVE (DO-17)            
1 20440U 90005E   09129.98783697  .00000001  00000-0  15514-4 0  3133
2 20440  98.2500 104.9480 0010116 282.8437  77.1622 14.32126523  7826
WEBERSAT (WO-18)        
1 20441U 90005F   09130.05465464 -.00000001  00000-0  15057-4 0  8210
2 20441  98.2575 103.6571 0010602 285.0012  74.9996 14.31891137  7761
LUSAT (LO-19)           
1 20442U 90005G   09129.62298274 -.00000028  00000-0  48500-5 0  5200
2 20442  98.2378 107.1980 0010921 283.6233  76.3719 14.32058889  7791
JAS-1B (FO-20)          
1 20480U 90013C   09129.67000485 -.00000069  00000-0 -75006-4 0  1360
2 20480  99.0694  57.5092 0539517 257.5491  96.4761 12.83360629901962
INFORMATOR 1 & RS-14    
1 21087U 91006A   09129.96932617  .00000027  00000-0  12344-4 0  2673
2 21087  82.9406  74.3343 0036414  32.9120 327.4283 13.75043217917164
COSMOS 2123 & RS-12/13  
1 21089U 91007A   09129.46228856  .00000030  00000-0  14835-4 0  1472
2 21089  82.9187 295.3780 0030879  77.5842 282.8763 13.74486709915876
UOSAT 5 (UO-22)         
1 21575U 91050B   09129.47190821 -.00000003  00000-0  13072-4 0  5490
2 21575  98.4425  78.9343 0007919 129.6883 230.4993 14.39672483935139
KITSAT 1 (KO-23)        
1 22077U 92052B   09130.04742346 -.00000037  00000-0  10000-3 0  7419
2 22077  66.0865  46.5296 0014384 288.3973  71.5468 12.86448253786615
ARASENE (AO-24)         
1 22654U 93031B   09129.06016113 -.00000124  00000-0  10000-3 0  2618
2 22654   5.0990 338.1973 2872503 158.4299 216.2971  1.42205456 78566
EYESAT-1 (AO-27)        
1 22825U 93061C   09128.38218509 -.00000042  00000-0  24433-6 0  2402
2 22825  98.4332  83.0652 0008664  28.8041 331.3608 14.29264671814224
ITAMSAT (IO-26)         
1 22826U 93061D   09129.35930521 -.00000004  00000-0  15008-4 0  9643
2 22826  98.4265  84.7763 0009292  20.9161 339.2402 14.29516425814467
KITSAT 2 (KO-25)        
1 22828U 93061F   09128.98183336 -.00000034  00000-0  31592-5 0  1728
2 22828  98.4188  84.3260 0009794 356.1822   3.9295 14.29816587782681
POSAT (PO-28)           
1 22829U 93061G   09129.46621217 -.00000064  00000-0 -81978-5 0  2119
2 22829  98.4150  85.9251 0009601 351.0131   9.0858 14.30214570814765
RADIO ROSTO (RS-15)     
1 23439U 94085A   09128.95547571 -.00000039  00000-0  10000-3 0  2204
2 23439  64.8194 328.2615 0147615  59.2448 302.2918 11.27553592591693
JAS-2 (FO-29)           
1 24278U 96046B   09129.84435215  .00000111  00000-0  14590-3 0   368
2 24278  98.5597   9.0272 0351436  89.7451 274.3948 13.52943570628567
UNAMSAT-2 (MO-30)       
1 24305U 96052B   09129.78756125 -.00000000  00000-0 -16276-4 0  1112
2 24305  82.9391  22.4425 0030449   4.4602 355.6819 13.73569425635403
TMSAT-1 (TO-31)         
1 25396U 98043C   09129.90900924 -.00000003  00000-0  16717-4 0  3986
2 25396  98.3341 159.8674 0002396   9.8377 350.2840 14.23776588562858
TECHSAT 1B (GO-32)      
1 25397U 98043D   09129.61502251 -.00000040  00000-0  50523-6 0  8886
2 25397  98.3279 154.0184 0001567  49.3145 310.8179 14.23157937562648
SEDSAT 1 (SO-33)        
1 25509U 98061B   09129.47268370  .00000520  00000-0  92399-4 0  4496
2 25509  31.4353 271.3933 0355075 359.9708   0.1029 14.28252564550298
PAN SAT (PO-34)         
1 25520U 98064B   09129.38394057  .00000433  00000-0  11476-4 0  2425
2 25520  28.4594 154.6951 0005488 239.0431 120.9624 15.17332018582758
ISS (ZARYA)             
1 25544U 98067A   09129.50840848  .00010895  00000-0  83540-4 0  8220
2 25544  51.6392 145.2703 0009192 343.4625 153.2209 15.72670568599864
SUNSAT (SO-35)          
1 25636U 99008C   09129.99761383  .00000028  00000-0  15653-4 0  3027
2 25636  96.4488 323.2750 0147945 343.4886  16.1527 14.43462111537599
UOSAT 12 (UO-36)        
1 25693U 99021A   09129.79228316 -.00000071  00000-0  93931-5 0  9073
2 25693  64.5576 233.7967 0009274 204.7869 155.2798 14.78747118542168
OPAL (OO-38)            
1 26063U 00004C   09129.82670113 -.00000001  00000-0  19834-4 0  5010
2 26063 100.2050 269.3842 0036847  10.0731 350.1188 14.35862730486442
SAUDISAT 1A (SO-41)     
1 26545U 00057A   09129.78591705 -.00000052  00000-0  12615-4 0  2470
2 26545  64.5575 235.8982 0056066 284.5091  74.9796 14.80581302465510
TIUNGSAT-1 (MO-46)      
1 26548U 00057D   09127.39039493 -.00000158  00000-0 -33686-6 0  3886
2 26548  64.5560 206.9973 0051506 278.6361  80.8832 14.83357994465905
SAUDISAT 1B (SO-42)     
1 26549U 00057E   09129.17786179  .00000042  00000-0  24968-4 0  3279
2 26549  64.5572 254.2030 0059492 288.3156  71.1509 14.79438173465099
PHASE 3D (AO-40)        
1 26609U 00072B   09125.51528958 -.00000438  00000-0  10000-3 0  2254
2 26609   9.3392  20.5550 7961681 201.0314  82.1254  1.25583412 39091
PCSAT (NO-44)           
1 26931U 01043C   09130.01487622  .00000226  00000-0  12054-3 0  1641
2 26931  67.0511 162.6865 0005392 270.1682  89.8804 14.29556857397123
SAPPHIRE (NO-45)        
1 26932U 01043D   09129.56000291 -.00000056  00000-0  10297-4 0  1676
2 26932  67.0542 163.8025 0004501 248.6209 111.4411 14.29607872397103
IDEFIX & ARIANE 42P R/B 
1 27422U 02021B   09130.20724163  .00000006  00000-0  19459-4 0   405
2 27422  98.5217 210.3340 0012154 339.3904  20.6789 14.28491198363986
RUBIN-2 & SAFIR-M       
1 27605U 02058A   09129.28874374 -.00000090  00000-0  82482-5 0  9033
2 27605  64.5564 130.4978 0071577 215.0837 144.5499 14.72398592343216
SAUDISAT 1C (SO-50)     
1 27607U 02058C   09129.17641685  .00000020  00000-0  25151-4 0  8805
2 27607  64.5570 143.5710 0071974 214.1526 145.4925 14.71433774342933
DTUSAT                  
1 27842U 03031C   09129.59094963  .00000021  00000-0  29763-4 0  5514
2 27842  98.7062 140.2812 0008520 233.9810 126.0573 14.20977821303861
CUTE-1 (CO-55)          
1 27844U 03031E   09129.04404900  .00000077  00000-0  56018-4 0  5741
2 27844  98.7142 138.7639 0008805 256.3554 103.6650 14.20636098303709
AAU CUBESAT             
1 27846U 03031G   09129.59056784 -.00000009  00000-0  15864-4 0  4857
2 27846  98.7062 140.2750 0008602 233.1750 126.8622 14.20977516303866
CANX-1                  
1 27847U 03031H   09128.54244189  .00000032  00000-0  35022-4 0  4998
2 27847  98.7067 139.2344 0008495 237.3316 122.7051 14.20960722303663
CUBESAT XI-IV (CO-57)   
1 27848U 03031J   09128.52304463  .00000021  00000-0  30083-4 0  5204
2 27848  98.7154 137.3112 0008887 263.9446  96.0713 14.20437877303597
MOZHAYETS 4 (RS-22)     
1 27939U 03042A   09129.15424061  .00000097  00000-0  27728-4 0  7852
2 27939  97.9524   5.4356 0012283 255.2211 104.7645 14.63313583299863
ECHO (AO-51)            
1 28375U 04025K   09129.69505652  .00000006  00000-0  14504-4 0  3847
2 28375  98.0539 141.5429 0082863 242.2420 117.0348 14.40640787255412
HAMSAT (VO-52)          
1 28650U 05017B   09129.21595519  .00000438  00000-0  61941-4 0  2210
2 28650  97.7442 192.0803 0027766 154.5969 205.6637 14.81581731216878
UWE-1                   
1 28892U 05043C   09129.23925004  .00000073  00000-0  24787-4 0  3319
2 28892  98.0612  20.4259 0018353 108.3802 251.9376 14.59731205188165
SSETI EXPRESS (XO-53)   
1 28894U 05043E   09129.40534074  .00000008  00000-0  11234-4 0  4562
2 28894  98.0614  20.8317 0018600 110.0254 250.2956 14.59665969188196
CUBESAT XI-V (CO-58)    
1 28895U 05043F   09129.40477422  .00000148  00000-0  40497-4 0  2977
2 28895  98.0663  21.0985 0019225 108.6586 251.6699 14.59764872188079
NCUBE-2                 
1 28897U 05043H   09130.15283713  .00000082  00000-0  26574-4 0  8446
2 28897  98.0617  21.7369 0018264 106.4991 253.8245 14.59942298180478
CUTE-1.7+APD (CO-56)    
1 28941U 06005C   09130.02054874  .00048551  34455-5  19134-3 0   630
2 28941  98.1366 297.4349 0095237 275.3612  83.6756 15.80147863181210
PEHUENSAT 1             
1 29712U 07001D   09130.16992995  .00000457  00000-0  66323-4 0  4672
2 29712  97.8312 187.4811 0015253  42.2701 317.9692 14.80532368125842
DELFI-C3                
1 32789U 08021G   09129.73389039  .00000349  00000-0  51012-4 0  3626
2 32789  97.9502 194.0693 0016278 152.7549 207.4517 14.81686590 55758
PRISM                   
1 33493U 09002B   09130.18800128  .00000210  00000-0  34353-4 0  3667
2 33493  98.0533 242.2386 0020374   8.6469 351.5093 14.80660363 15849
STARS                   
1 33498U 09002G   09130.18697045  .00000119  00000-0  27219-4 0  3283
2 33498  98.0344 240.4146 0014394  86.3982 273.8869 14.71301414 15729
KKS-1                   
1 33499U 09002H   09130.16365860  .00000052  00000-0  16570-4 0  3351
2 33499  98.0366 240.3026 0011589  83.3065 276.9455 14.70679042 15710
